[{"OBJECT_NAME":"YUNHAI-2 01D","OBJECT_ID":"2018-112D","EPOCH":"2026-03-09T23:06:26.804736","MEAN_MOTION":14.28986233,"ECCENTRICITY":0.00157828,"INCLINATION":50.0122,"RA_OF_ASC_NODE":348.6213,"ARG_OF_PERICENTER":356.8631,"MEAN_ANOMALY":3.2183,"EPHEMERIS_TYPE":0,"CLASSIFICATION_TYPE":"U","NORAD_CAT_ID":43912,"ELEMENT_SET_NO":999,"REV_AT_EPOCH":37339,"BSTAR":0.00013763161,"MEAN_MOTION_DOT":1.89e-6,"MEAN_MOTION_DDOT":0},{"OBJECT_NAME":"DELTA 1 DEB","OBJECT_ID":"1972-058JW","EPOCH":"2026-03-08T07:13:47.468640","MEAN_MOTION":13.75039875,"ECCENTRICITY":0.02474804,"INCLINATION":98.8192,"RA_OF_ASC_NODE":193.9151,"ARG_OF_PERICENTER":328.1294,"MEAN_ANOMALY":30.5083,"EPHEMERIS_TYPE":0,"CLASSIFICATION_TYPE":"U","NORAD_CAT_ID":42563,"ELEMENT_SET_NO":999,"REV_AT_EPOCH":60984,"BSTAR":0.00036547818,"MEAN_MOTION_DOT":3.95e-6,"MEAN_MOTION_DDOT":0}]
